[{"OBJECT_NAME":"CUTE-1 (CO-55)","OBJECT_ID":"2003-031E","EPOCH":"2026-03-09T23:38:51.813024","MEAN_MOTION":14.24266468,"ECCENTRICITY":0.00106777,"INCLINATION":98.6777,"RA_OF_ASC_NODE":78.7801,"ARG_OF_PERICENTER":111.7093,"MEAN_ANOMALY":248.5223,"EPHEMERIS_TYPE":0,"CLASSIFICATION_TYPE":"U","NORAD_CAT_ID":27844,"ELEMENT_SET_NO":999,"REV_AT_EPOCH":17755,"BSTAR":0.00020468113,"MEAN_MOTION_DOT":4.29e-6,"MEAN_MOTION_DDOT":0},{"OBJECT_NAME":"ARGOS","OBJECT_ID":"1999-008A","EPOCH":"2026-03-09T21:57:54.614016","MEAN_MOTION":14.19969218,"ECCENTRICITY":0.0009642,"INCLINATION":98.5016,"RA_OF_ASC_NODE":38.7948,"ARG_OF_PERICENTER":333.9971,"MEAN_ANOMALY":26.072,"EPHEMERIS_TYPE":0,"CLASSIFICATION_TYPE":"U","NORAD_CAT_ID":25634,"ELEMENT_SET_NO":999,"REV_AT_EPOCH":40021,"BSTAR":7.2556906e-5,"MEAN_MOTION_DOT":1.12e-6,"MEAN_MOTION_DDOT":0}]
